     3.00           N                   E                   RINEX VERSION / TYPE
BRD_USR             ESA                 20190112 151633  UTCPGM / RUN BY / DATE
 GAL   3.6000E+01  1.1719E-01  1.0681E-03  0.0000E+00       IONOSPHERIC CORR
GAUT  2.7939677238E-09-1.776356839E-15 518400 2035 GSTB   0 TIME SYSTEM CORR
GPGA  2.1827872843E-09 1.199040867E-14 518400 2035 GSTB   0 TIME SYSTEM CORR
                                                            END OF HEADER
E14 2019 01 12 12 10 00 6.461029173806E-03-5.570655048359E-12 0.000000000000E+00
     4.100000000000E+01-3.003125000000E+01 4.391968657409E-09 4.675146301580E-01
    -2.702698111534E-06 1.662658265559E-01 8.564442396164E-06 5.289365169525E+03
     5.622000000000E+05-1.290813088417E-06-1.465749210498E+00-5.351379513741E-06
     8.826272728544E-01 1.946250000000E+02 1.457138126509E+00-7.333519756248E-09
     1.106474660539E-09 2.580000000000E+02 2.035000000000E+03 0.000000000000E+00
     3.120000000000E+00 5.600000000000E+01 3.329478204250E-08 0.000000000000E+00
     5.653000000000E+05 0.000000000000E+00 0.000000000000E+00 0.000000000000E+00
E18 2019 01 12 12 50 00 5.611886444967E-03-2.850697455870E-11 0.000000000000E+00
     4.500000000000E+01 1.244375000000E+02 4.983779022972E-09-2.380698830302E+00
     6.083399057388E-06 1.663052408257E-01 2.181157469749E-06 5.289381408691E+03
     5.646000000000E+05 3.432855010033E-06-1.448562829885E+00 1.147389411926E-06
     8.818344385497E-01 2.557500000000E+02 1.441667500107E+00-6.392051968907E-09
     2.771544017362E-10 2.580000000000E+02 2.035000000000E+03 0.000000000000E+00
     3.120000000000E+00 5.600000000000E+01 1.420266926289E-08 0.000000000000E+00
     5.653000000000E+05 0.000000000000E+00 0.000000000000E+00 0.000000000000E+00
E19 2019 01 12 12 50 00-9.177252650261E-06 3.268496584496E-13 0.000000000000E+00
     4.500000000000E+01-2.281250000000E+01 3.119772808203E-09-2.224772614024E+00
    -1.071020960808E-06 1.326915808022E-04 1.065619289875E-05 5.440622602463E+03
     5.646000000000E+05-1.490116119385E-08 1.238178940974E+00-5.587935447693E-09
     9.582204602884E-01 1.106250000000E+02 2.365590210293E+00-5.476299538429E-09
     1.000041655749E-10 2.580000000000E+02 2.035000000000E+03 0.000000000000E+00
     3.120000000000E+00 0.000000000000E+00-8.614733815193E-09 0.000000000000E+00
     5.653000000000E+05 0.000000000000E+00 0.000000000000E+00 0.000000000000E+00
E24 2019 01 12 12 50 00 6.289851095062E-03-1.966782292584E-11 0.000000000000E+00
     4.500000000000E+01-2.718750000000E+00 2.850833034353E-09 2.182400739625E+00
    -1.806765794754E-07 4.810711834580E-04 7.115304470062E-06 5.440614370346E+03
     5.646000000000E+05-2.235174179077E-08-2.945713518438E+00 2.793967723846E-08
     9.877085102526E-01 2.016562500000E+02 4.972573726969E-01-5.522015728406E-09
    -4.243033882249E-10 2.580000000000E+02 2.035000000000E+03 0.000000000000E+00
     3.120000000000E+00 0.000000000000E+00 4.260800778866E-08 0.000000000000E+00
     5.653000000000E+05 0.000000000000E+00 0.000000000000E+00 0.000000000000E+00
E25 2019 01 12 12 50 00 1.926067750901E-03-1.134026206273E-11 0.000000000000E+00
     4.500000000000E+01 3.875000000000E+00 2.801545267034E-09-3.042372016698E+00
     1.154839992523E-07 1.904619857669E-04 7.279217243195E-06 5.440621994019E+03
     5.646000000000E+05 3.166496753693E-08-2.951791632918E+00-1.676380634308E-08
     9.897100250294E-01 2.012812500000E+02-1.324326005642E+00-5.458798809453E-09
    -4.578762152394E-10 2.580000000000E+02 2.035000000000E+03 0.000000000000E+00
     3.120000000000E+00 0.000000000000E+00-1.396983861923E-09 0.000000000000E+00
     5.653000000000E+05 0.000000000000E+00 0.000000000000E+00 0.000000000000E+00
E26 2019 01 12 12 50 00 5.028247658629E-03-4.337152859080E-11 0.000000000000E+00
     4.500000000000E+01 2.384375000000E+01 3.010839699273E-09-1.326116239939E+00
     1.216307282448E-06 3.180935746059E-04 4.533678293228E-06 5.440604419708E+03
     5.646000000000E+05-2.421438694000E-08-8.602636222329E-01-3.725290298462E-09
     9.782837863379E-01 2.513750000000E+02-2.004562101029E+00-5.694522914022E-09
     3.003696544589E-10 2.580000000000E+02 2.035000000000E+03 0.000000000000E+00
     3.120000000000E+00 0.000000000000E+00 9.313225746155E-10 0.000000000000E+00
     5.653000000000E+05 0.000000000000E+00 0.000000000000E+00 0.000000000000E+00
E30 2019 01 12 12 50 00 5.194492114242E-03-3.049649421882E-11 0.000000000000E+00
     4.500000000000E+01 6.875000000000E-01 2.885834492304E-09-2.527567624823E-01
     9.313225746155E-09 3.121946938336E-04 6.530433893204E-06 5.440609972000E+03
     5.646000000000E+05 4.097819328308E-08-2.945769941725E+00 5.401670932770E-08
     9.876929257863E-01 2.121562500000E+02 5.787169508668E-01-5.530944671761E-09
    -3.689439394246E-10 2.580000000000E+02 2.035000000000E+03 0.000000000000E+00
     3.120000000000E+00 0.000000000000E+00-2.793967723846E-09 0.000000000000E+00
     5.653000000000E+05 0.000000000000E+00 0.000000000000E+00 0.000000000000E+00
E31 2019 01 12 12 50 00 9.345402941108E-04-9.691802915768E-12 0.000000000000E+00
     4.500000000000E+01 3.718750000000E+00 2.763329389475E-09-1.279300353960E+00
     1.769512891769E-07 2.282056957483E-04 6.917864084244E-06 5.440626134872E+03
     5.646000000000E+05-1.862645149231E-09-2.951815804714E+00 7.450580596924E-09
     9.896791472175E-01 2.066562500000E+02-1.516682716403E+00-5.499871948885E-09
    -3.628722579432E-10 2.580000000000E+02 2.035000000000E+03 0.000000000000E+00
     3.120000000000E+00 0.000000000000E+00-2.328306436539E-10 0.000000000000E+00
     5.653000000000E+05 0.000000000000E+00 0.000000000000E+00 0.000000000000E+00
E33 2019 01 12 12 50 00 8.479092502967E-04 5.684341886081E-14 0.000000000000E+00
     4.500000000000E+01 2.015625000000E+01 2.854047453961E-09-2.687962798360E+00
     9.816139936447E-07 3.672486636788E-04 3.898516297340E-06 5.440598379135E+03
     5.646000000000E+05-4.284083843231E-08-8.692086201994E-01 3.166496753693E-08
     9.851634980026E-01 2.649375000000E+02-1.434239526245E+00-5.676307869578E-09
     3.021554431299E-10 2.580000000000E+02 2.035000000000E+03 0.000000000000E+00
     3.120000000000E+00 5.600000000000E+01-8.149072527885E-09 0.000000000000E+00
     5.653000000000E+05 0.000000000000E+00 0.000000000000E+00 0.000000000000E+00
E36 2019 01 12 12 50 00 7.605373975821E-04-4.476419235289E-12 0.000000000000E+00
     4.500000000000E+01 2.784375000000E+01 2.925836158534E-09 1.337465697375E+00
     1.356005668640E-06 3.345656441525E-04 3.920868039131E-06 5.440598272324E+03
     5.646000000000E+05 4.470348358154E-08-8.691821077350E-01-2.235174179077E-08
     9.851720151117E-01 2.681875000000E+02-1.531004459110E+00-5.732024476113E-09
     3.125130174216E-10 2.580000000000E+02 2.035000000000E+03 0.000000000000E+00
     3.120000000000E+00 5.600000000000E+01 1.164153218269E-09 0.000000000000E+00
     5.653000000000E+05 0.000000000000E+00 0.000000000000E+00 0.000000000000E+00
E11 2019 01 12 12 50 00 5.719637963921E-03 8.526512829121E-13 0.000000000000E+00
     4.500000000000E+01 2.468750000000E+01 3.022983062236E-09 9.391667905580E-01
     1.126900315285E-06 2.747332910076E-04 3.712251782417E-06 5.440602231979E+03
     5.646000000000E+05 4.656612873077E-08-8.638845961010E-01 2.607703208923E-08
     9.819259549631E-01 2.736875000000E+02-3.527523612089E-01-5.742739208139E-09
     2.764400862678E-10 5.210000000000E+02 2.035000000000E+03 0.000000000000E+00
     3.120000000000E+00 0.000000000000E+00-1.839362084866E-08-2.002343535423E-08
     5.654050000000E+05 0.000000000000E+00 0.000000000000E+00 0.000000000000E+00
E27 2019 01 12 11 50 00 5.512571660802E-04-7.716494110355E-12 0.000000000000E+00
     3.900000000000E+01 1.125000000000E+00 2.877977022152E-09-6.001093160475E-02
    -2.793967723846E-08 1.858148025349E-04 6.452202796936E-06 5.440620870590E+03
     5.610000000000E+05 6.332993507385E-08-2.951746335123E+00 9.685754776001E-08
     9.896777984071E-01 2.167812500000E+02-8.261255584169E-01-5.582732543219E-09
    -4.268034923643E-10 5.210000000000E+02 2.035000000000E+03 0.000000000000E+00
     3.120000000000E+00 0.000000000000E+00-2.561137080193E-09-3.026798367500E-09
     5.654350000000E+05 0.000000000000E+00 0.000000000000E+00 0.000000000000E+00
E27 2019 01 12 11 50 00 5.512574571185E-04-7.716494110355E-12 0.000000000000E+00
     3.900000000000E+01 1.125000000000E+00 2.877977022152E-09-6.001093160475E-02
    -2.793967723846E-08 1.858148025349E-04 6.452202796936E-06 5.440620870590E+03
     5.610000000000E+05 6.332993507385E-08-2.951746335123E+00 9.685754776001E-08
     9.896777984071E-01 2.167812500000E+02-8.261255584169E-01-5.582732543219E-09
    -4.268034923643E-10 2.580000000000E+02 2.035000000000E+03 0.000000000000E+00
     3.120000000000E+00 0.000000000000E+00-2.561137080193E-09 0.000000000000E+00
     5.654500000000E+05 0.000000000000E+00 0.000000000000E+00 0.000000000000E+00
E07 2019 01 12 12 50 00-1.111891469918E-04-7.119638212316E-12 0.000000000000E+00
     4.500000000000E+01-4.396875000000E+01 3.247278119311E-09 1.639041522487E+00
    -1.879408955574E-06 1.354323467240E-04 1.148879528046E-05 5.440625202179E+03
     5.646000000000E+05 9.313225746155E-09 1.241439226538E+00 3.725290298462E-09
     9.524914755960E-01 8.956250000000E+01-6.762082810749E-03-5.548088243002E-09
     9.000374901741E-11 2.580000000000E+02 2.035000000000E+03 0.000000000000E+00
     3.120000000000E+00 0.000000000000E+00 0.000000000000E+00 0.000000000000E+00
     5.656000000000E+05 0.000000000000E+00 0.000000000000E+00 0.000000000000E+00
